ORBCOMM FM103 [+]       
1 40091U 14040F   24107.62511273  .00002075  00000+0  49956-3 0  9993
2 40091  47.0049 229.7085 0001460 147.9169 212.1805 14.56469818501884
ORBCOMM FM114 [+]       
1 41179U 15081A   24108.48218638  .00001765  00000+0  43057-3 0  9992
2 41179  47.0014 134.9635 0001879 227.6216 132.4509 14.56483505442423
ORBCOMM FM119 [-]       
1 41180U 15081B   24107.56000469  .00002101  00000+0  50549-3 0  9992
2 41180  47.0021  48.4934 0001988 268.4003  91.6654 14.56456361443497
ORBCOMM FM105 [-]       
1 41181U 15081C   24107.81775327  .00001013  00000+0  33702-3 0  9996
2 41181  47.0033  12.0332 0002031 227.9009 132.1698 14.44320585439091
ORBCOMM FM110 [+]       
1 41182U 15081D   24107.36174815  .00001553  00000+0  38329-3 0  9991
2 41182  47.0004 139.6509 0002068 336.7991  23.2800 14.56479802442089
ORBCOMM FM118 [+]       
1 41183U 15081E   24108.43654566  .00002003  00000+0  48342-3 0  9994
2 41183  47.0025 134.8881 0002159 340.5597  19.5205 14.56485166442424
ORBCOMM FM112 [+]       
1 41184U 15081F   24108.22379861  .00002415  00000+0  57533-3 0  9993
2 41184  47.0003  44.5928 0001434 261.2454  98.8269 14.56471237443588
ORBCOMM FM113 [+]       
1 41185U 15081G   24107.51489533  .00002130  00000+0  51199-3 0  9999
2 41185  47.0021  48.1935 0001399 279.2082  80.8644 14.56466664443411
